CRE (WAAS/PRN 138)      
1 28868U 05036A   24234.52448422 -.00000082  00000+0  00000+0 0  9991
2 28868   2.5960  84.8465 0003169  52.4536 274.5460  1.00271561 69494
IOR-W (EGNOS/PRN 126)   
1 28899U 05044A   24233.90214873 -.00000266  00000+0  00000+0 0  9990
2 28899   4.2585  42.6761 0002147 124.1152 271.2030  1.00271548 68836
GSAT-8 (GAGAN/PRN 127)  
1 37605U 11022A   24234.12688097  .00000077  00000+0  00000+0 0  9995
2 37605   0.4019  90.7453 0004927 142.6075 197.3283  1.00271240 48576
LUCH 5A (SDCM/PRN 140)  
1 37951U 11074B   24233.51470779 -.00000055  00000+0  00000+0 0  9991
2 37951   7.0457  83.9533 0004263  65.9546 171.6440  1.00272600 46372
SES-5 (EGNOS/PRN 136)   
1 38652U 12036A   24233.69639282  .00000026  00000+0  00000+0 0  9991
2 38652   0.0692 293.2878 0002093 218.5446  73.3596  1.00271077 44394
GSAT-10 (GAGAN/PRN 128) 
1 38779U 12051B   24233.90871046 -.00000172  00000+0  00000+0 0  9991
2 38779   0.0981 267.1334 0000966  13.1875  99.5457  1.00270306 43629
LUCH 5B (SDCM/PRN 125)  
1 38977U 12061A   24234.33598644 -.00000142  00000+0  00000+0 0  9997
2 38977   9.0279  56.1182 0006060 123.8775 254.8369  1.00271067 43515
ASTRA 5B (EGNOS/PRN 123)
1 39617U 14011B   24233.77158035  .00000129  00000+0  00000+0 0  9993
2 39617   0.0893 297.1370 0002543 229.4957 104.2196  1.00269277 38197
LUCH 5V (SDCM/PRN 141)  
1 39727U 14023A   24233.86815476 -.00000275  00000+0  00000+0 0  9990
2 39727   3.4542  75.5717 0003274 122.6056 178.7367  1.00268177555835
GSAT-15 (GAGAN/PRN 139) 
1 41028U 15065A   24233.71634559 -.00000266  00000+0  00000+0 0  9999
2 41028   0.0690 277.9666 0002719 206.6051 196.3393  1.00273992 32196
E 117 W B (WAAS/PRN 131)
1 41589U 16038B   24233.52903281 -.00000019  00000+0  00000+0 0  9998
2 41589   0.0096 269.6707 0000244  14.7134 118.4143  1.00272149 29998
SES-15 (WAAS/PRN 133)   
1 42709U 17026A   24234.23242993  .00000052  00000+0  00000+0 0  9992
2 42709   0.0190  41.3081 0000365 115.5854 127.6675  1.00267629 27516
QZS-2 (QZSS/PRN 194)    
1 42738U 17028A   24234.40063719 -.00000118  00000+0  00000+0 0  9996
2 42738  40.4728 252.8190 0752866 270.0180  93.1651  1.00267407 26460
QZS-3 (QZSS/PRN 199)    
1 42917U 17048A   24233.89652117 -.00000355  00000+0  00000+0 0  9998
2 42917   0.0729 219.4261 0001923 286.6105 273.4425  1.00273494 25690
QZS-4 (QZSS/PRN 195)    
1 42965U 17062A   24233.66012966 -.00000312  00000+0  00000+0 0  9997
2 42965  40.4862 351.9776 0748538 269.0517  85.7396  1.00283492 25133
BEIDOU-3 G1 (PRN 130)   
1 43683U 18085A   24233.59077221 -.00000286  00000+0  00000+0 0  9998
2 43683   2.3454 107.2143 0002860  17.2185 197.7339  1.00270267 21380
BEIDOU-3 G2 (PRN 144)   
1 45344U 20017A   24233.90823399 -.00000148  00000+0  00000+0 0  9999
2 45344   2.3969  31.9744 0002808 161.2380 183.5055  1.00271889 16604
BEIDOU-3 G3 (PRN 143)   
1 45807U 20040A   24233.88256035 -.00000361  00000+0  00000+0 0  9990
2 45807   0.8914  49.2749 0002571 355.7218 352.9895  1.00270028 15411
GALAXY 30 (WAAS/PRN 135)
1 46114U 20056C   24234.23188432  .00000029  00000+0  00000+0 0  9994
2 46114   0.0145  98.9857 0002006  51.1552 138.3630  1.00271898 14736
QZS-1R (QZSS/PRN 196)   
1 49336U 21096A   24234.00292442 -.00000256  00000+0  00000+0 0  9993
2 49336  36.0746  89.5457 0741599 269.2473 104.3504  1.00300064 10337
